[
    {
        "Altitude(m)": 611967.1776416177,
        "Argument of Periapsis(deg)": 0.0,
        "Eccentricity": 0.0,
        "Inclination(deg)": 60.0,
        "Latitude(deg)": 59.14015766428102,
        "Longitude(deg)": -173.90775557710563,
        "Mean Anomaly(deg)": 98.18179999999998,
        "RAAN(deg)": 180.0,
        "Satellite Name": "Test1 798",
        "Satellite Number": 798,
        "Semi-Major Axis(m)": 6980739.136638005,
        "Time(s)": 0
    },
    {
        "Altitude(m)": 611934.3767750324,
        "Argument of Periapsis(deg)": 0.00010418945913296404,
        "Eccentricity": 0.0,
        "Inclination(deg)": 60.0,
        "Latitude(deg)": 58.986517654978506,
        "Longitude(deg)": -172.78451114037586,
        "Mean Anomaly(deg)": 98.80190614546184,
        "RAAN(deg)": 179.99957995086024,
        "Satellite Name": "Test1 798",
        "Satellite Number": 798,
        "Semi-Major Axis(m)": 6980739.136638005,
        "Time(s)": 10
    }
]